STARLINK-11364 [DTC]    
1 61543C 24184M   26199.70604167  .00001928  00000+0  15888-4 0  1991
2 61543  53.1571 310.5977 0001160  76.5552 232.7682 15.69700001    13
STARLINK-11349 [DTC]    
1 61544C 24184N   26199.70951389  .00033119  00000+0  27294-3 0  1993
2 61544  53.1571 310.5238 0001100  81.2517 275.4505 15.69681434    18
STARLINK-32406          
1 61545C 24184P   26199.65743056  .00056192  00000+0  16601-2 0  1993
2 61545  53.1579 124.3530 0001358  93.2938   8.5662 15.34364612    15
STARLINK-32445          
1 61546C 24184Q   26199.67548611  .00116890  00000+0  33475-2 0  1996
2 61546  53.1574 123.9009 0002053  91.4198 298.6351 15.35308022    19
STARLINK-32411          
1 61547C 24184R   26199.68590278  .00055368  00000+0  16359-2 0  1998
2 61547  53.1582 124.3559 0000987  68.0533 121.4034 15.34362939    18
STARLINK-32424          
1 61548C 24184S   26199.65534722 -.00122970  00000+0 -36335-2 0  1990
2 61548  53.1571 124.1598 0001212  93.3181 101.7510 15.34450812    18
STARLINK-32389          
1 61549C 24184T   26199.67409722  .00058661  00000+0  19774-2 0  1995
2 61549  53.1564 125.5512 0001384  98.2287 168.8330 15.30156586    14
STARLINK-32476          
1 61550C 24184U   26199.66506944  .00058149  00000+0  17183-2 0  1993
2 61550  53.1572 124.1819 0001238  99.2085 114.6510 15.34356052    18
STARLINK-32366          
1 61551C 24184V   26199.68104167  .00062795  00000+0  18555-2 0  1993
2 61551  53.1572 123.9026 0001351  96.7817 310.0125 15.34355784    12
STARLINK-11356 [DTC]    
1 61574C 24187A   26199.67548611 -.00045711  00000+0 -37661-3 0  1997
2 61574  53.1579  10.5647 0001053  77.0612 253.4693 15.69728043    18
STARLINK-11376 [DTC]    
1 61575C 24187B   26199.66784722 -.00073386  00000+0 -60450-3 0  1993
2 61575  53.1577  10.5461 0001064  88.8760 226.1904 15.69746536    16
STARLINK-11372 [DTC]    
1 61576C 24187C   26199.71854167 -.00045516  00000+0 -37502-3 0  1997
2 61576  53.1573  10.2395 0001046  86.0609 183.3943 15.69726241    16
STARLINK-11375 [DTC]    
1 61577C 24187D   26199.70534722 -.00050854  00000+0 -41898-3 0  1993
2 61577  53.1573  10.2472 0001111  76.6790 145.9005 15.69730445    16
STARLINK-11285 [DTC]    
1 61578C 24187E   26199.65465278 -.00031892  00000+0 -26273-3 0  1998
2 61578  53.1572  10.4394 0001020  93.2518 230.4356 15.69722915    15
STARLINK-11275 [DTC]    
1 61579C 24187F   26199.71645833 -.00030533  00000+0 -25162-3 0  1990
2 61579  53.1571  10.0776 0001098  69.4979 271.3850 15.69714785    15
STARLINK-11342 [DTC]    
1 61580C 24187G   26199.68659722 -.00046669  00000+0 -38456-3 0  1997
2 61580  53.1573  10.1675 0001040  77.4381 122.3448 15.69724255    12
STARLINK-11374 [DTC]    
1 61581C 24187H   26199.71506944 -.00055029  00000+0 -45340-3 0  1999
2 61581  53.1573  10.7063 0001052  90.6166 297.3148 15.69731526    10
STARLINK-11373 [DTC]    
1 61582C 24187J   26199.66854167 -.00028952  00000+0 -23854-3 0  1998
2 61582  53.1573  10.8786 0001107  79.9448  72.6415 15.69719002    14
STARLINK-11368 [DTC]    
1 61583C 24187K   26199.71506944 -.00048246  00000+0 -39744-3 0  1995
2 61583  53.1569  10.5928 0001074  80.6407   2.7518 15.69732107    11
STARLINK-11370 [DTC]    
1 61584C 24187L   26199.65256944 -.00024593  00000+0 -20259-3 0  1991
2 61584  53.1570  10.8428 0001066  79.7383  38.0115 15.69720241    16
STARLINK-11361 [DTC]    
1 61585C 24187M   26199.66715278 -.00032180  00000+0 -26507-3 0  1996
2 61585  53.1572  10.7135 0001054  80.7793 147.1587 15.69726221    16
STARLINK-11360 [DTC]    
1 61586C 24187N   26199.68104167 -.00063672  00000+0 -52442-3 0  1995
2 61586  53.1574  10.5876 0001014  87.4410 246.7652 15.69744472    12
STARLINK-32353          
1 61587C 24187P   26199.69493056  .00009224  00000+0  27256-3 0  1991
2 61587  53.1577 173.9944 0001266  91.1032  21.5149 15.34379842    14
STARLINK-32325          
1 61588C 24187Q   26199.67270833 -.00009881  00000+0 -29205-3 0  1993
2 61588  53.1571 174.3143 0001187  82.1306 163.0113 15.34384911    17
STARLINK-32416          
1 61589C 24187R   26199.69701389  .00032663  00000+0  96521-3 0  1998
2 61589  53.1574 159.6354 0001306  95.4069 102.0964 15.34368313    12
STARLINK-32413          
1 61590C 24187S   26199.66437500 -.00008768  00000+0 -25913-3 0  1996
2 61590  53.1570 174.4805 0001252  86.1225  43.1919 15.34385403    11
STARLINK-32409          
1 61591C 24187T   26199.70187500  .00036322  00000+0  10738-2 0  1997
2 61591  53.1587 159.8873 0001233  97.6175 347.2367 15.34353750    17
STARLINK-32422          
1 61592C 24187U   26199.70743056 -.00094355  00000+0 -27878-2 0  1997
2 61592  53.1587 159.7200 0001399  92.5697  92.7749 15.34436438    18
STARLINK-32397          
1 61593C 24187V   26199.67895833 -.00001926  00000+0 -56921-4 0  1990
2 61593  53.1566 172.1405 0001424  83.7889 199.0870 15.34381843    11
STARLINK-32302          
1 61621C 24191A   26199.70881944  .00030354  00000+0  10995-2 0  1993
2 61621  43.0016 134.3184 0001517 266.1621 217.8713 15.27561189    19
STARLINK-32364          
1 61622C 24191B   26199.66437500  .00018367  00000+0  66533-3 0  1994
2 61622  43.0010 134.7040 0001538 263.9779 278.7629 15.27565017    17
STARLINK-32331          
1 61623C 24191C   26199.71576389  .00035555  00000+0  12879-2 0  1991
2 61623  43.0005 138.0440 0001421 265.5086 132.0744 15.27556782    12
STARLINK-32398          
1 61624C 24191D   26199.69979167  .00035782  00000+0  12962-2 0  1995
2 61624  43.0000 134.6546 0001110 262.1832  51.8819 15.27557343    19
STARLINK-32365          
1 61625C 24191E   26199.64979167  .00013681  00000+0  49558-3 0  1997
2 61625  43.0015 134.6848 0001542 262.4672 242.4285 15.27566797    13
STARLINK-32333          
1 61626C 24191F   26199.65743056  .00018073  00000+0  65468-3 0  1993
2 61626  43.0000 138.5227 0001187 258.9717 113.7767 15.27566360    18
STARLINK-32399          
1 61627C 24191G   26199.68034722  .00034789  00000+0  12619-2 0  1991
2 61627  43.0016 127.3086 0001451 272.4458 155.6154 15.27514832    14
STARLINK-32421          
1 61628C 24191H   26199.66784722  .00023861  00000+0  86395-3 0  1994
2 61628  42.9994 134.9195 0001128 264.7952 197.9564 15.27578082    18
STARLINK-32403          
1 61629C 24191J   26199.66784722  .00019533  00000+0  70736-3 0  1998
2 61629  43.0002 134.7841 0001090 263.3374 256.0480 15.27574903    10
STARLINK-32390          
1 61630C 24191K   26199.69631944  .00028455  00000+0  10307-2 0  1990
2 61630  43.0004 134.8620 0001106 258.9102 318.2151 15.27563919    18
STARLINK-32348          
1 61631C 24191L   26199.70534722  .00033329  00000+0  12070-2 0  1994
2 61631  43.0002 138.1506 0001393 267.6406  51.3673 15.27566120    10
STARLINK-32455          
1 61632C 24191M   26199.67687500  .00025068  00000+0  90798-3 0  1999
2 61632  42.9999 138.5143 0000652 248.3681 189.0082 15.27565654    17
STARLINK-32396          
1 61633C 24191N   26199.67965278  .00021125  00000+0  76522-3 0  1990
2 61633  43.0001 138.3461 0000887 259.2425 257.0786 15.27565805    17
STARLINK-32355          
1 61634C 24191P   26199.71298611  .00032688  00000+0  11837-2 0  1999
2 61634  43.0002 138.3457 0000977 252.1927   9.8101 15.27571417    13
STARLINK-32370          
1 61635C 24191Q   26199.67895833  .00031622  00000+0  11456-2 0  1998
2 61635  43.0021 134.4335 0001510 265.1564  75.7053 15.27556994    13
STARLINK-32405          
1 61636C 24191R   26199.70048611  .00025849  00000+0  93629-3 0  1994
2 61636  43.0004 138.4660 0001021 259.0750 272.9082 15.27564291    18
STARLINK-32419          
1 61637C 24191S   26199.67965278  .00025008  00000+0  90587-3 0  1995
2 61637  43.0001 134.9031 0001202 264.9515 241.6403 15.27563541    11
STARLINK-32320          
1 61638C 24191T   26199.70256944  .00028700  00000+0  10388-2 0  1995
2 61638  43.0010 138.5060 0001019 246.9737 275.2779 15.27587368    18
STARLINK-32341          
1 61639C 24191U   26199.69979167  .00034661  00000+0  12557-2 0  1996
2 61639  42.9997 134.6853 0001318 267.0027  32.9276 15.27554507    15
STARLINK-32339          
1 61640C 24191V   26199.67270833  .00028759  00000+0  10419-2 0  1996
2 61640  43.0026 134.4186 0001480 265.6599  62.0128 15.27556060    13
STARLINK-32327          
1 61641C 24191W   26199.69006944  .00033759  00000+0  12232-2 0  1990
2 61641  43.0009 134.5044 0001471 267.4115  78.0438 15.27549555    15
STARLINK-32264          
1 61642C 24191X   26199.67409722  .00073947  00000+0  66425-3 0  1997
2 61642  42.9874 114.0624 0024827 200.8559 229.4284 15.66862098    18
STARLINK-32337          
1 61643C 24191Y   26199.68937500  .00031616  00000+0  11453-2 0  1996
2 61643  43.0005 134.6093 0001261 260.5813  38.5864 15.27559035    12
STARLINK-32238          
1 61661C 24193A   26199.68590278 -.00037980  00000+0 -12801-2 0  1995
2 61661  53.1562 202.7342 0001255  86.3997 145.7056 15.30209435    10
STARLINK-32310          
1 61662C 24193B   26199.69354167 -.00029835  00000+0 -95967-3 0  1997
2 61662  53.1573 201.7521 0001173  84.8118 310.3355 15.31708075    15
STARLINK-32308          
1 61663C 24193C   26199.69215278 -.00033807  00000+0 -99918-3 0  1991
2 61663  53.1572 199.9633 0001229  79.0391 139.1231 15.34396980    19
STARLINK-32301          
1 61664C 24193D   26199.68798611 -.00036356  00000+0 -11695-2 0  1995
2 61664  53.1568 201.9384 0001186  86.1388 197.3979 15.31710319    17
STARLINK-32439          
1 61665C 24193E   26199.71923611 -.00025594  00000+0 -86284-3 0  1999
2 61665  53.1574 202.7117 0001276  80.9460 265.0922 15.30196087    11
STARLINK-32428          
1 61666C 24193F   26199.68034722 -.00036796  00000+0 -11837-2 0  1999
2 61666  53.1572 202.0720 0001235  84.4309 105.4589 15.31709263    12
STARLINK-32414          
1 61667C 24193G   26199.65604167 -.00033692  00000+0 -11357-2 0  1992
2 61667  53.1563 202.8844 0001018  84.7366 336.9653 15.30203824    17
